{
  "type": "FeatureCollection",
  "features": [
    {
      "type": "Feature",
      "properties": {
        "norad_id": 38867,
        "name": "INTELSAT 23 (IS-23)",
        "group": "intelsat",
        "lat": -0.02286936912159994,
        "lon": -80.1711418904477,
        "alt_km": 35788.18783653246,
        "timestamp": "2025-12-09T16:56:36.248133+00:00",
        "meta_object_name": "INTELSAT 23 (IS-23)",
        "meta_object_id": "2012-057A",
        "meta_epoch": "2025-12-09T09:53:51.304704",
        "meta_mean_motion": 1.00260494,
        "meta_eccentricity": 0.0002038,
        "meta_inclination": 0.0422,
        "meta_ra_of_asc_node": 93.9676,
        "meta_arg_of_pericenter": 103.0006,
        "meta_mean_anomaly": 336.8761,
        "meta_ephemeris_type": 0,
        "meta_classification_type": "U",
        "meta_norad_cat_id": 38867,
        "meta_element_set_no": 999,
        "meta_rev_at_epoch": 4805,
        "meta_bstar": 0,
        "meta_mean_motion_dot": -2.82e-06,
        "meta_mean_motion_ddot": 0,
        "tle_line1": "1 38867U 12057A   25343.41239936 -.00000282  00000+0  00000+0 0  9992",
        "tle_line2": "2 38867   0.0422  93.9676 0002038 103.0006 336.8761  1.00260494 48052"
      },
      "geometry": {
        "type": "Point",
        "coordinates": [
          -80.1711418904477,
          -0.02286936912159994
        ]
      }
    },
    {
      "type": "Feature",
      "properties": {
        "norad_id": 39360,
        "name": "FM-6",
        "group": "intelsat",
        "lat": -0.0018211569104050447,
        "lon": -143.28588070973774,
        "alt_km": 35777.947634303724,
        "timestamp": "2025-12-09T16:56:36.248145+00:00",
        "meta_object_name": "FM-6",
        "meta_object_id": "2013-058A",
        "meta_epoch": "2025-12-09T11:12:09.804096",
        "meta_mean_motion": 1.00269349,
        "meta_eccentricity": 0.0002874,
        "meta_inclination": 0.0058,
        "meta_ra_of_asc_node": 83.0174,
        "meta_arg_of_pericenter": 90.5467,
        "meta_mean_anomaly": 316.787,
        "meta_ephemeris_type": 0,
        "meta_classification_type": "U",
        "meta_norad_cat_id": 39360,
        "meta_element_set_no": 999,
        "meta_rev_at_epoch": 4417,
        "meta_bstar": 0,
        "meta_mean_motion_dot": -1.4e-07,
        "meta_mean_motion_ddot": 0,
        "tle_line1": "1 39360U 13058A   25343.46678014 -.00000014  00000+0  00000+0 0  9995",
        "tle_line2": "2 39360   0.0058  83.0174 0002874  90.5467 316.7870  1.00269349 44173"
      },
      "geometry": {
        "type": "Point",
        "coordinates": [
          -143.28588070973774,
          -0.0018211569104050447
        ]
      }
    },
    {
      "type": "Feature",
      "properties": {
        "norad_id": 40271,
        "name": "INTELSAT 30 (IS-30)",
        "group": "intelsat",
        "lat": -0.026038165387410977,
        "lon": -122.21514803445157,
        "alt_km": 35791.90797435823,
        "timestamp": "2025-12-09T16:56:36.248157+00:00",
        "meta_object_name": "INTELSAT 30 (IS-30)",
        "meta_object_id": "2014-062A",
        "meta_epoch": "2025-12-09T12:22:48.556128",
        "meta_mean_motion": 1.00269053,
        "meta_eccentricity": 0.00013,
        "meta_inclination": 0.0144,
        "meta_ra_of_asc_node": 15.4205,
        "meta_arg_of_pericenter": 65.9123,
        "meta_mean_anomaly": 87.8151,
        "meta_ephemeris_type": 0,
        "meta_classification_type": "U",
        "meta_norad_cat_id": 40271,
        "meta_element_set_no": 999,
        "meta_rev_at_epoch": 488,
        "meta_bstar": 0,
        "meta_mean_motion_dot": -1.48e-06,
        "meta_mean_motion_ddot": 0,
        "tle_line1": "1 40271U 14062A   25343.51583977 -.00000148  00000+0  00000+0 0  9991",
        "tle_line2": "2 40271   0.0144  15.4205 0001300  65.9123  87.8151  1.00269053  4888"
      },
      "geometry": {
        "type": "Point",
        "coordinates": [
          -122.21514803445157,
          -0.026038165387410977
        ]
      }
    },
    {
      "type": "Feature",
      "properties": {
        "norad_id": 40333,
        "name": "DIRECTV 14",
        "group": "intelsat",
        "lat": -0.037368998642210216,
        "lon": -126.35706066466958,
        "alt_km": 35778.188308788776,
        "timestamp": "2025-12-09T16:56:36.248169+00:00",
        "meta_object_name": "DIRECTV 14",
        "meta_object_id": "2014-078B",
        "meta_epoch": "2025-12-09T10:14:01.480128",
        "meta_mean_motion": 1.00285429,
        "meta_eccentricity": 9.85e-05,
        "meta_inclination": 0.0183,
        "meta_ra_of_asc_node": 330.534,
        "meta_arg_of_pericenter": 274.6028,
        "meta_mean_anomaly": 247.5776,
        "meta_ephemeris_type": 0,
        "meta_classification_type": "U",
        "meta_norad_cat_id": 40333,
        "meta_element_set_no": 999,
        "meta_rev_at_epoch": 4014,
        "meta_bstar": 0,
        "meta_mean_motion_dot": -1.25e-06,
        "meta_mean_motion_ddot": 0,
        "tle_line1": "1 40333U 14078B   25343.42640602 -.00000125  00000+0  00000+0 0  9991",
        "tle_line2": "2 40333   0.0183 330.5340 0000985 274.6028 247.5776  1.00285429 40144"
      },
      "geometry": {
        "type": "Point",
        "coordinates": [
          -126.35706066466958,
          -0.037368998642210216
        ]
      }
    },
    {
      "type": "Feature",
      "properties": {
        "norad_id": 40663,
        "name": "DIRECTV 15",
        "group": "intelsat",
        "lat": 0.00021591073289971727,
        "lon": -130.03219162800954,
        "alt_km": 35786.19607845261,
        "timestamp": "2025-12-09T16:56:36.248181+00:00",
        "meta_object_name": "DIRECTV 15",
        "meta_object_id": "2015-026A",
        "meta_epoch": "2025-12-09T10:11:45.197088",
        "meta_mean_motion": 1.00269059,
        "meta_eccentricity": 3.17e-05,
        "meta_inclination": 0.0393,
        "meta_ra_of_asc_node": 81.7138,
        "meta_arg_of_pericenter": 209.1617,
        "meta_mean_anomaly": 197.6116,
        "meta_ephemeris_type": 0,
        "meta_classification_type": "U",
        "meta_norad_cat_id": 40663,
        "meta_element_set_no": 999,
        "meta_rev_at_epoch": 3856,
        "meta_bstar": 0,
        "meta_mean_motion_dot": -1e-06,
        "meta_mean_motion_ddot": 0,
        "tle_line1": "1 40663U 15026A   25343.42482867 -.00000100  00000+0  00000+0 0  9991",
        "tle_line2": "2 40663   0.0393  81.7138 0000317 209.1617 197.6116  1.00269059 38566"
      },
      "geometry": {
        "type": "Point",
        "coordinates": [
          -130.03219162800954,
          0.00021591073289971727
        ]
      }
    },
    {
      "type": "Feature",
      "properties": {
        "norad_id": 40664,
        "name": "SKY MEXICO-1",
        "group": "intelsat",
        "lat": -0.020228406696374223,
        "lon": -105.93713754013275,
        "alt_km": 35775.46470554335,
        "timestamp": "2025-12-09T16:56:36.248192+00:00",
        "meta_object_name": "SKY MEXICO-1",
        "meta_object_id": "2015-026B",
        "meta_epoch": "2025-12-09T10:28:17.474304",
        "meta_mean_motion": 1.0027078,
        "meta_eccentricity": 0.0002748,
        "meta_inclination": 0.0249,
        "meta_ra_of_asc_node": 61.7054,
        "meta_arg_of_pericenter": 212.5019,
        "meta_mean_anomaly": 242.5266,
        "meta_ephemeris_type": 0,
        "meta_classification_type": "U",
        "meta_norad_cat_id": 40664,
        "meta_element_set_no": 999,
        "meta_rev_at_epoch": 3855,
        "meta_bstar": 0,
        "meta_mean_motion_dot": -2.32e-06,
        "meta_mean_motion_ddot": 0,
        "tle_line1": "1 40664U 15026B   25343.43631336 -.00000232  00000+0  00000+0 0  9996",
        "tle_line2": "2 40664   0.0249  61.7054 0002748 212.5019 242.5266  1.00270780 38554"
      },
      "geometry": {
        "type": "Point",
        "coordinates": [
          -105.93713754013275,
          -0.020228406696374223
        ]
      }
    },
    {
      "type": "Feature",
      "properties": {
        "norad_id": 40874,
        "name": "INTELSAT 34 (IS-34)",
        "group": "intelsat",
        "lat": -0.020515476860876854,
        "lon": -82.64750610345428,
        "alt_km": 35787.20939652666,
        "timestamp": "2025-12-09T16:56:36.248204+00:00",
        "meta_object_name": "INTELSAT 34 (IS-34)",
        "meta_object_id": "2015-039A",
        "meta_epoch": "2025-12-09T09:53:06.375840",
        "meta_mean_motion": 1.00270243,
        "meta_eccentricity": 5.86e-05,
        "meta_inclination": 0.0134,
        "meta_ra_of_asc_node": 307.0309,
        "meta_arg_of_pericenter": 224.8064,
        "meta_mean_anomaly": 359.3494,
        "meta_ephemeris_type": 0,
        "meta_classification_type": "U",
        "meta_norad_cat_id": 40874,
        "meta_element_set_no": 999,
        "meta_rev_at_epoch": 3772,
        "meta_bstar": 0,
        "meta_mean_motion_dot": -2.83e-06,
        "meta_mean_motion_ddot": 0,
        "tle_line1": "1 40874U 15039A   25343.41187935 -.00000283  00000+0  00000+0 0  9998",
        "tle_line2": "2 40874   0.0134 307.0309 0000586 224.8064 359.3494  1.00270243 37725"
      },
      "geometry": {
        "type": "Point",
        "coordinates": [
          -82.64750610345428,
          -0.020515476860876854
        ]
      }
    }
  ]
}